ONEWEB-0228             
1 48780U 21045P   24286.83273327 -.00000032  00000+0 -11814-3 0  9990
2 48780  87.9120  21.0527 0001944 102.0717 258.0631 13.15549984163812
